{
    "links": {
        "self": "http://www.neowsapp.com/rest/v1/neo/3888750?api_key=iIulBulltgU6a56xZRHN4H3l9WmuAYTsLGpBGhQ2"
    },
    "id": "3888750",
    "neo_reference_id": "3888750",
    "name": "(2019 UL12)",
    "designation": "2019 UL12",
    "nasa_jpl_url": "http://ssd.jpl.nasa.gov/sbdb.cgi?sstr=3888750",
    "absolute_magnitude_h": 25.9,
    "estimated_diameter": {
        "kilometers": {
            "estimated_diameter_min": 0.0175612318,
            "estimated_diameter_max": 0.0392681082
        },
        "meters": {
            "estimated_diameter_min": 17.561231848,
            "estimated_diameter_max": 39.2681081809
        },
        "miles": {
            "estimated_diameter_min": 0.0109120402,
            "estimated_diameter_max": 0.0244000636
        },
        "feet": {
            "estimated_diameter_min": 57.6155918963,
            "estimated_diameter_max": 128.8323800441
        }
    },
    "is_potentially_hazardous_asteroid": false,
    "close_approach_data": [
        {
            "close_approach_date": "2019-10-26",
            "close_approach_date_full": "2019-Oct-26 15:12",
            "epoch_date_close_approach": 1572102720000,
            "relative_velocity": {
                "kilometers_per_second": "9.8456320859",
                "kilometers_per_hour": "35444.2755091229",
                "miles_per_hour": "22023.6944128769"
            },
            "miss_distance": {
                "astronomical": "0.0321068562",
                "lunar": "12.4895670618",
                "kilometers": "4803117.299916294",
                "miles": "2984518.6961970972"
            },
            "orbiting_body": "Earth"
        }
    ],
    "orbital_data": {
        "orbit_id": "3",
        "orbit_determination_date": "2020-09-11 07:45:30",
        "first_observation_date": "2019-10-28",
        "last_observation_date": "2019-11-18",
        "data_arc_in_days": 21,
        "observations_used": 21,
        "orbit_uncertainty": "8",
        "minimum_orbit_intersection": ".00853746",
        "jupiter_tisserand_invariant": "3.827",
        "epoch_osculation": "2458786.5",
        "eccentricity": ".4916446679441532",
        "semi_major_axis": "1.868981830449833",
        "inclination": "1.74584155517977",
        "ascending_node_longitude": "43.16679426270419",
        "orbital_period": "933.2672928923229",
        "perihelion_distance": ".9501068790246693",
        "perihelion_argument": "312.7975254907569",
        "aphelion_distance": "2.787856781874997",
        "perihelion_time": "2458754.940329515091",
        "mean_anomaly": "12.17387715298203",
        "mean_motion": ".3857415798686256",
        "equinox": "J2000",
        "orbit_class": {
            "orbit_class_type": "APO",
            "orbit_class_description": "Near-Earth asteroid orbits which cross the Earth’s orbit similar to that of 1862 Apollo",
            "orbit_class_range": "a (semi-major axis) > 1.0 AU; q (perihelion) < 1.017 AU"
        }
    },
    "is_sentry_object": false
}